{
  "type": "FeatureCollection",
  "features": [
    {
      "type": "Feature",
      "properties": {
        "norad_id": 41581,
        "name": "INTELSAT 31 (IS-31)",
        "group": "intelsat",
        "lat": 0.00934726977943886,
        "lon": -33.19718219209539,
        "alt_km": 35788.67526713107,
        "timestamp": "2025-12-11T22:43:46.939833+00:00",
        "meta_object_name": "INTELSAT 31 (IS-31)",
        "meta_object_id": "2016-035A",
        "meta_epoch": "2025-12-11T02:47:08.911104",
        "meta_mean_motion": 1.00272585,
        "meta_eccentricity": 0.00019714,
        "meta_inclination": 0.0158,
        "meta_ra_of_asc_node": 272.679,
        "meta_arg_of_pericenter": 304.2877,
        "meta_mean_anomaly": 169.8397,
        "meta_ephemeris_type": 0,
        "meta_classification_type": "U",
        "meta_norad_cat_id": 41581,
        "meta_element_set_no": 999,
        "meta_rev_at_epoch": 3479,
        "meta_bstar": 0,
        "meta_mean_motion_dot": -1.45e-06,
        "meta_mean_motion_ddot": 0,
        "tle_line1": "1 41581U 16035A   25345.11607536 -.00000145  00000+0  00000+0 0  9991",
        "tle_line2": "2 41581   0.0158 272.6790 0001971 304.2877 169.8397  1.00272585 34793"
      },
      "geometry": {
        "type": "Point",
        "coordinates": [
          -33.19718219209539,
          0.00934726977943886
        ]
      }
    },
    {
      "type": "Feature",
      "properties": {
        "norad_id": 41747,
        "name": "INTELSAT 36 (IS-36)",
        "group": "intelsat",
        "lat": 0.023088356693409195,
        "lon": 130.32621672910852,
        "alt_km": 35792.45785085721,
        "timestamp": "2025-12-11T22:43:46.939845+00:00",
        "meta_object_name": "INTELSAT 36 (IS-36)",
        "meta_object_id": "2016-053A",
        "meta_epoch": "2025-12-11T13:36:53.851680",
        "meta_mean_motion": 1.00270492,
        "meta_eccentricity": 0.00014639,
        "meta_inclination": 0.0152,
        "meta_ra_of_asc_node": 16.4771,
        "meta_arg_of_pericenter": 305.6379,
        "meta_mean_anomaly": 31.1188,
        "meta_ephemeris_type": 0,
        "meta_classification_type": "U",
        "meta_norad_cat_id": 41747,
        "meta_element_set_no": 999,
        "meta_rev_at_epoch": 3406,
        "meta_bstar": 0,
        "meta_mean_motion_dot": -1.7e-07,
        "meta_mean_motion_ddot": 0,
        "tle_line1": "1 41747U 16053A   25345.56728995 -.00000017  00000+0  00000+0 0  9995",
        "tle_line2": "2 41747   0.0152  16.4771 0001463 305.6379  31.1188  1.00270492 34066"
      },
      "geometry": {
        "type": "Point",
        "coordinates": [
          130.32621672910852,
          0.023088356693409195
        ]
      }
    },
    {
      "type": "Feature",
      "properties": {
        "norad_id": 41945,
        "name": "INTELSAT 32E (IS-32E)",
        "group": "intelsat",
        "lat": -0.014773014429636298,
        "lon": 18.653311278477826,
        "alt_km": 35784.49429023471,
        "timestamp": "2025-12-11T22:43:46.939857+00:00",
        "meta_object_name": "INTELSAT 32E (IS-32E)",
        "meta_object_id": "2017-007B",
        "meta_epoch": "2025-12-11T09:52:56.783712",
        "meta_mean_motion": 1.00269547,
        "meta_eccentricity": 5.77e-05,
        "meta_inclination": 0.0346,
        "meta_ra_of_asc_node": 80.6441,
        "meta_arg_of_pericenter": 277.6658,
        "meta_mean_anomaly": 187.1137,
        "meta_ephemeris_type": 0,
        "meta_classification_type": "U",
        "meta_norad_cat_id": 41945,
        "meta_element_set_no": 999,
        "meta_rev_at_epoch": 3234,
        "meta_bstar": 0,
        "meta_mean_motion_dot": -2.62e-06,
        "meta_mean_motion_ddot": 0,
        "tle_line1": "1 41945U 17007B   25345.41176833 -.00000262  00000+0  00000+0 0  9999",
        "tle_line2": "2 41945   0.0346  80.6441 0000577 277.6658 187.1137  1.00269547 32345"
      },
      "geometry": {
        "type": "Point",
        "coordinates": [
          18.653311278477826,
          -0.014773014429636298
        ]
      }
    },
    {
      "type": "Feature",
      "properties": {
        "norad_id": 42818,
        "name": "INTELSAT 35E (IS-35E)",
        "group": "intelsat",
        "lat": 0.021997938900160576,
        "lon": 27.340355828226084,
        "alt_km": 35791.33961790434,
        "timestamp": "2025-12-11T22:43:46.939869+00:00",
        "meta_object_name": "INTELSAT 35E (IS-35E)",
        "meta_object_id": "2017-041A",
        "meta_epoch": "2025-12-11T03:04:29.748576",
        "meta_mean_motion": 1.00269178,
        "meta_eccentricity": 0.00022113,
        "meta_inclination": 0.0179,
        "meta_ra_of_asc_node": 355.4658,
        "meta_arg_of_pericenter": 273.4798,
        "meta_mean_anomaly": 182.7563,
        "meta_ephemeris_type": 0,
        "meta_classification_type": "U",
        "meta_norad_cat_id": 42818,
        "meta_element_set_no": 999,
        "meta_rev_at_epoch": 3093,
        "meta_bstar": 0,
        "meta_mean_motion_dot": -2.33e-06,
        "meta_mean_motion_ddot": 0,
        "tle_line1": "1 42818U 17041A   25345.12812209 -.00000233  00000+0  00000+0 0  9997",
        "tle_line2": "2 42818   0.0179 355.4658 0002211 273.4798 182.7563  1.00269178 30935"
      },
      "geometry": {
        "type": "Point",
        "coordinates": [
          27.340355828226084,
          0.021997938900160576
        ]
      }
    },
    {
      "type": "Feature",
      "properties": {
        "norad_id": 42950,
        "name": "INTELSAT 37E (IS-37E)",
        "group": "intelsat",
        "lat": 0.014937616363212326,
        "lon": 43.86449774715929,
        "alt_km": 35797.62792186286,
        "timestamp": "2025-12-11T22:43:46.939882+00:00",
        "meta_object_name": "INTELSAT 37E (IS-37E)",
        "meta_object_id": "2017-059A",
        "meta_epoch": "2025-12-11T10:00:03.603168",
        "meta_mean_motion": 1.00272034,
        "meta_eccentricity": 0.00032041,
        "meta_inclination": 0.0006,
        "meta_ra_of_asc_node": 358.3994,
        "meta_arg_of_pericenter": 256.6399,
        "meta_mean_anomaly": 317.3571,
        "meta_ephemeris_type": 0,
        "meta_classification_type": "U",
        "meta_norad_cat_id": 42950,
        "meta_element_set_no": 999,
        "meta_rev_at_epoch": 3018,
        "meta_bstar": 0,
        "meta_mean_motion_dot": -1.34e-06,
        "meta_mean_motion_ddot": 0,
        "tle_line1": "1 42950U 17059A   25345.41670837 -.00000134  00000+0  00000+0 0  9994",
        "tle_line2": "2 42950   0.0006 358.3994 0003204 256.6399 317.3571  1.00272034 30186"
      },
      "geometry": {
        "type": "Point",
        "coordinates": [
          43.86449774715929,
          0.014937616363212326
        ]
      }
    },
    {
      "type": "Feature",
      "properties": {
        "norad_id": 43632,
        "name": "AZERSPACE 2 (IS-38)",
        "group": "intelsat",
        "lat": 0.032217972181007505,
        "lon": 106.94130067218677,
        "alt_km": 35791.818870766016,
        "timestamp": "2025-12-11T22:43:46.939894+00:00",
        "meta_object_name": "AZERSPACE 2 (IS-38)",
        "meta_object_id": "2018-074A",
        "meta_epoch": "2025-12-11T06:30:38.803680",
        "meta_mean_motion": 1.00271658,
        "meta_eccentricity": 0.00014523,
        "meta_inclination": 0.0184,
        "meta_ra_of_asc_node": 0.4784,
        "meta_arg_of_pericenter": 266.8936,
        "meta_mean_anomaly": 315.6295,
        "meta_ephemeris_type": 0,
        "meta_classification_type": "U",
        "meta_norad_cat_id": 43632,
        "meta_element_set_no": 999,
        "meta_rev_at_epoch": 2656,
        "meta_bstar": 0,
        "meta_mean_motion_dot": 1.43e-06,
        "meta_mean_motion_ddot": 0,
        "tle_line1": "1 43632U 18074A   25345.27128245  .00000143  00000+0  00000+0 0  9994",
        "tle_line2": "2 43632   0.0184   0.4784 0001452 266.8936 315.6295  1.00271658 26568"
      },
      "geometry": {
        "type": "Point",
        "coordinates": [
          106.94130067218677,
          0.032217972181007505
        ]
      }
    },
    {
      "type": "Feature",
      "properties": {
        "norad_id": 43633,
        "name": "HORIZONS-3E",
        "group": "intelsat",
        "lat": 0.00478515686272127,
        "lon": -129.16939120137155,
        "alt_km": 35783.3055700428,
        "timestamp": "2025-12-11T22:43:46.939906+00:00",
        "meta_object_name": "HORIZONS-3E",
        "meta_object_id": "2018-074B",
        "meta_epoch": "2025-12-10T19:28:56.939232",
        "meta_mean_motion": 1.00269493,
        "meta_eccentricity": 0.0001199,
        "meta_inclination": 0.0426,
        "meta_ra_of_asc_node": 178.6641,
        "meta_arg_of_pericenter": 100.4377,
        "meta_mean_anomaly": 261.9253,
        "meta_ephemeris_type": 0,
        "meta_classification_type": "U",
        "meta_norad_cat_id": 43633,
        "meta_element_set_no": 999,
        "meta_rev_at_epoch": 2645,
        "meta_bstar": 0,
        "meta_mean_motion_dot": -2.6e-07,
        "meta_mean_motion_ddot": 0,
        "tle_line1": "1 43633U 18074B   25344.81177013 -.00000026  00000+0  00000+0 0  9992",
        "tle_line2": "2 43633   0.0426 178.6641 0001199 100.4377 261.9253  1.00269493 26457"
      },
      "geometry": {
        "type": "Point",
        "coordinates": [
          -129.16939120137155,
          0.00478515686272127
        ]
      }
    }
  ]
}